<?xml version="1.0" encoding="UTF-8"?>
<ndm xmlns:xsi="http://www.w3.org/2001/XMLSchema-instance" xsi:noNamespaceSchemaLocation="https://sanaregistry.org/r/ndmxml_unqualified/ndmxml-2.0.0-master-2.0.xsd">
<omm id="CCSDS_OMM_VERS" version="2.0">
<header><CREATION_DATE/><ORIGINATOR/></header><body><segment><metadata><OBJECT_NAME>ORBCOMM-X</OBJECT_NAME><OBJECT_ID>1991-050C</OBJECT_ID><CENTER_NAME>EARTH</CENTER_NAME><REF_FRAME>TEME</REF_FRAME><TIME_SYSTEM>UTC</TIME_SYSTEM><MEAN_ELEMENT_THEORY>SGP4</MEAN_ELEMENT_THEORY></metadata><data><meanElements><EPOCH>2025-03-14T04:29:21.350688</EPOCH><MEAN_MOTION>14.43134348</MEAN_MOTION><ECCENTRICITY>.0004853</ECCENTRICITY><INCLINATION>98.3530</INCLINATION><RA_OF_ASC_NODE>141.6873</RA_OF_ASC_NODE><ARG_OF_PERICENTER>109.9273</ARG_OF_PERICENTER><MEAN_ANOMALY>250.2441</MEAN_ANOMALY></meanElements><tleParameters><EPHEMERIS_TYPE>0</EPHEMERIS_TYPE><CLASSIFICATION_TYPE>U</CLASSIFICATION_TYPE><NORAD_CAT_ID>21576</NORAD_CAT_ID><ELEMENT_SET_NO>999</ELEMENT_SET_NO><REV_AT_EPOCH>76841</REV_AT_EPOCH><BSTAR>.28955E-3</BSTAR><MEAN_MOTION_DOT>.929E-5</MEAN_MOTION_DOT><MEAN_MOTION_DDOT>0</MEAN_MOTION_DDOT></tleParameters></data></segment></body></omm>
<omm id="CCSDS_OMM_VERS" version="2.0">
<header><CREATION_DATE/><ORIGINATOR/></header><body><segment><metadata><OBJECT_NAME>ORBCOMM FM01</OBJECT_NAME><OBJECT_ID>1995-017A</OBJECT_ID><CENTER_NAME>EARTH</CENTER_NAME><REF_FRAME>TEME</REF_FRAME><TIME_SYSTEM>UTC</TIME_SYSTEM><MEAN_ELEMENT_THEORY>SGP4</MEAN_ELEMENT_THEORY></metadata><data><meanElements><EPOCH>2025-03-14T08:51:08.312544</EPOCH><MEAN_MOTION>14.88262045</MEAN_MOTION><ECCENTRICITY>.000204</ECCENTRICITY><INCLINATION>69.9644</INCLINATION><RA_OF_ASC_NODE>310.3154</RA_OF_ASC_NODE><ARG_OF_PERICENTER>176.3786</ARG_OF_PERICENTER><MEAN_ANOMALY>183.7382</MEAN_ANOMALY></meanElements><tleParameters><EPHEMERIS_TYPE>0</EPHEMERIS_TYPE><CLASSIFICATION_TYPE>U</CLASSIFICATION_TYPE><NORAD_CAT_ID>23545</NORAD_CAT_ID><ELEMENT_SET_NO>999</ELEMENT_SET_NO><REV_AT_EPOCH>59839</REV_AT_EPOCH><BSTAR>.15185E-2</BSTAR><MEAN_MOTION_DOT>.13995E-3</MEAN_MOTION_DOT><MEAN_MOTION_DDOT>0</MEAN_MOTION_DDOT></tleParameters></data></segment></body></omm>
<omm id="CCSDS_OMM_VERS" version="2.0">
<header><CREATION_DATE/><ORIGINATOR/></header><body><segment><metadata><OBJECT_NAME>ORBCOMM FM02</OBJECT_NAME><OBJECT_ID>1995-017B</OBJECT_ID><CENTER_NAME>EARTH</CENTER_NAME><REF_FRAME>TEME</REF_FRAME><TIME_SYSTEM>UTC</TIME_SYSTEM><MEAN_ELEMENT_THEORY>SGP4</MEAN_ELEMENT_THEORY></metadata><data><meanElements><EPOCH>2025-03-14T21:26:04.061184</EPOCH><MEAN_MOTION>14.88708106</MEAN_MOTION><ECCENTRICITY>.0002694</ECCENTRICITY><INCLINATION>69.9672</INCLINATION><RA_OF_ASC_NODE>328.6406</RA_OF_ASC_NODE><ARG_OF_PERICENTER>146.6660</ARG_OF_PERICENTER><MEAN_ANOMALY>213.4664</MEAN_ANOMALY></meanElements><tleParameters><EPHEMERIS_TYPE>0</EPHEMERIS_TYPE><CLASSIFICATION_TYPE>U</CLASSIFICATION_TYPE><NORAD_CAT_ID>23546</NORAD_CAT_ID><ELEMENT_SET_NO>999</ELEMENT_SET_NO><REV_AT_EPOCH>59841</REV_AT_EPOCH><BSTAR>.15585E-2</BSTAR><MEAN_MOTION_DOT>.14527E-3</MEAN_MOTION_DOT><MEAN_MOTION_DDOT>0</MEAN_MOTION_DDOT></tleParameters></data></segment></body></omm>
<omm id="CCSDS_OMM_VERS" version="2.0">
<header><CREATION_DATE/><ORIGINATOR/></header><body><segment><metadata><OBJECT_NAME>ORBCOMM FM08</OBJECT_NAME><OBJECT_ID>1997-084A</OBJECT_ID><CENTER_NAME>EARTH</CENTER_NAME><REF_FRAME>TEME</REF_FRAME><TIME_SYSTEM>UTC</TIME_SYSTEM><MEAN_ELEMENT_THEORY>SGP4</MEAN_ELEMENT_THEORY></metadata><data><meanElements><EPOCH>2025-03-14T12:05:34.881216</EPOCH><MEAN_MOTION>14.45281319</MEAN_MOTION><ECCENTRICITY>.0004284</ECCENTRICITY><INCLINATION>45.0122</INCLINATION><RA_OF_ASC_NODE>102.2439</RA_OF_ASC_NODE><ARG_OF_PERICENTER>146.7836</ARG_OF_PERICENTER><MEAN_ANOMALY>213.3285</MEAN_ANOMALY></meanElements><tleParameters><EPHEMERIS_TYPE>0</EPHEMERIS_TYPE><CLASSIFICATION_TYPE>U</CLASSIFICATION_TYPE><NORAD_CAT_ID>25112</NORAD_CAT_ID><ELEMENT_SET_NO>999</ELEMENT_SET_NO><REV_AT_EPOCH>42767</REV_AT_EPOCH><BSTAR>.11685E-2</BSTAR><MEAN_MOTION_DOT>.3998E-4</MEAN_MOTION_DOT><MEAN_MOTION_DDOT>0</MEAN_MOTION_DDOT></tleParameters></data></segment></body></omm>
<omm id="CCSDS_OMM_VERS" version="2.0">
<header><CREATION_DATE/><ORIGINATOR/></header><body><segment><metadata><OBJECT_NAME>ORBCOMM FM10</OBJECT_NAME><OBJECT_ID>1997-084B</OBJECT_ID><CENTER_NAME>EARTH</CENTER_NAME><REF_FRAME>TEME</REF_FRAME><TIME_SYSTEM>UTC</TIME_SYSTEM><MEAN_ELEMENT_THEORY>SGP4</MEAN_ELEMENT_THEORY></metadata><data><meanElements><EPOCH>2025-03-14T11:18:29.777472</EPOCH><MEAN_MOTION>14.45076423</MEAN_MOTION><ECCENTRICITY>.0002052</ECCENTRICITY><INCLINATION>45.0136</INCLINATION><RA_OF_ASC_NODE>104.6172</RA_OF_ASC_NODE><ARG_OF_PERICENTER>91.1896</ARG_OF_PERICENTER><MEAN_ANOMALY>268.9191</MEAN_ANOMALY></meanElements><tleParameters><EPHEMERIS_TYPE>0</EPHEMERIS_TYPE><CLASSIFICATION_TYPE>U</CLASSIFICATION_TYPE><NORAD_CAT_ID>25113</NORAD_CAT_ID><ELEMENT_SET_NO>999</ELEMENT_SET_NO><REV_AT_EPOCH>60281</REV_AT_EPOCH><BSTAR>.11932E-2</BSTAR><MEAN_MOTION_DOT>.4068E-4</MEAN_MOTION_DOT><MEAN_MOTION_DDOT>0</MEAN_MOTION_DDOT></tleParameters></data></segment></body></omm>
<omm id="CCSDS_OMM_VERS" version="2.0">
<header><CREATION_DATE/><ORIGINATOR/></header><body><segment><metadata><OBJECT_NAME>ORBCOMM FM11</OBJECT_NAME><OBJECT_ID>1997-084C</OBJECT_ID><CENTER_NAME>EARTH</CENTER_NAME><REF_FRAME>TEME</REF_FRAME><TIME_SYSTEM>UTC</TIME_SYSTEM><MEAN_ELEMENT_THEORY>SGP4</MEAN_ELEMENT_THEORY></metadata><data><meanElements><EPOCH>2025-03-14T11:01:40.144224</EPOCH><MEAN_MOTION>14.44831852</MEAN_MOTION><ECCENTRICITY>.0002879</ECCENTRICITY><INCLINATION>45.0121</INCLINATION><RA_OF_ASC_NODE>105.1364</RA_OF_ASC_NODE><ARG_OF_PERICENTER>95.5949</ARG_OF_PERICENTER><MEAN_ANOMALY>264.5231</MEAN_ANOMALY></meanElements><tleParameters><EPHEMERIS_TYPE>0</EPHEMERIS_TYPE><CLASSIFICATION_TYPE>U</CLASSIFICATION_TYPE><NORAD_CAT_ID>25114</NORAD_CAT_ID><ELEMENT_SET_NO>999</ELEMENT_SET_NO><REV_AT_EPOCH>42777</REV_AT_EPOCH><BSTAR>.11135E-2</BSTAR><MEAN_MOTION_DOT>.3767E-4</MEAN_MOTION_DOT><MEAN_MOTION_DDOT>0</MEAN_MOTION_DDOT></tleParameters></data></segment></body></omm>
<omm id="CCSDS_OMM_VERS" version="2.0">
<header><CREATION_DATE/><ORIGINATOR/></header><body><segment><metadata><OBJECT_NAME>ORBCOMM FM12</OBJECT_NAME><OBJECT_ID>1997-084D</OBJECT_ID><CENTER_NAME>EARTH</CENTER_NAME><REF_FRAME>TEME</REF_FRAME><TIME_SYSTEM>UTC</TIME_SYSTEM><MEAN_ELEMENT_THEORY>SGP4</MEAN_ELEMENT_THEORY></metadata><data><meanElements><EPOCH>2025-03-14T11:49:18.046272</EPOCH><MEAN_MOTION>14.44851893</MEAN_MOTION><ECCENTRICITY>.0001872</ECCENTRICITY><INCLINATION>45.0127</INCLINATION><RA_OF_ASC_NODE>104.7384</RA_OF_ASC_NODE><ARG_OF_PERICENTER>91.6021</ARG_OF_PERICENTER><MEAN_ANOMALY>268.5045</MEAN_ANOMALY></meanElements><tleParameters><EPHEMERIS_TYPE>0</EPHEMERIS_TYPE><CLASSIFICATION_TYPE>U</CLASSIFICATION_TYPE><NORAD_CAT_ID>25115</NORAD_CAT_ID><ELEMENT_SET_NO>999</ELEMENT_SET_NO><REV_AT_EPOCH>42757</REV_AT_EPOCH><BSTAR>.11072E-2</BSTAR><MEAN_MOTION_DOT>.3746E-4</MEAN_MOTION_DOT><MEAN_MOTION_DDOT>0</MEAN_MOTION_DDOT></tleParameters></data></segment></body></omm>
<omm id="CCSDS_OMM_VERS" version="2.0">
<header><CREATION_DATE/><ORIGINATOR/></header><body><segment><metadata><OBJECT_NAME>ORBCOMM FM09</OBJECT_NAME><OBJECT_ID>1997-084E</OBJECT_ID><CENTER_NAME>EARTH</CENTER_NAME><REF_FRAME>TEME</REF_FRAME><TIME_SYSTEM>UTC</TIME_SYSTEM><MEAN_ELEMENT_THEORY>SGP4</MEAN_ELEMENT_THEORY></metadata><data><meanElements><EPOCH>2025-03-14T12:24:37.906560</EPOCH><MEAN_MOTION>14.44743971</MEAN_MOTION><ECCENTRICITY>.000336</ECCENTRICITY><INCLINATION>45.0132</INCLINATION><RA_OF_ASC_NODE>105.4639</RA_OF_ASC_NODE><ARG_OF_PERICENTER>69.9184</ARG_OF_PERICENTER><MEAN_ANOMALY>290.2028</MEAN_ANOMALY></meanElements><tleParameters><EPHEMERIS_TYPE>0</EPHEMERIS_TYPE><CLASSIFICATION_TYPE>U</CLASSIFICATION_TYPE><NORAD_CAT_ID>25116</NORAD_CAT_ID><ELEMENT_SET_NO>999</ELEMENT_SET_NO><REV_AT_EPOCH>42778</REV_AT_EPOCH><BSTAR>.10242E-2</BSTAR><MEAN_MOTION_DOT>.3446E-4</MEAN_MOTION_DOT><MEAN_MOTION_DDOT>0</MEAN_MOTION_DDOT></tleParameters></data></segment></body></omm>

</ndm>
