ORBCOMM-X               
1 21576U 91050C   25073.18705267  .00000929  00000+0  28955-3 0  9990
2 21576  98.3530 141.6873 0004853 109.9273 250.2441 14.43134348768411
ORBCOMM FM01            
1 23545U 95017A   25073.36884621  .00013995  00000+0  15185-2 0  9994
2 23545  69.9644 310.3154 0002040 176.3786 183.7382 14.88262045598396
ORBCOMM FM02            
1 23546U 95017B   25073.89310256  .00014527  00000+0  15585-2 0  9997
2 23546  69.9672 328.6406 0002694 146.6660 213.4664 14.88708106598416
ORBCOMM FM08            
1 25112U 97084A   25073.50387594  .00003998  00000+0  11685-2 0  9998
2 25112  45.0122 102.2439 0004284 146.7836 213.3285 14.45281319427679
ORBCOMM FM10            
1 25113U 97084B   25073.47117798  .00004068  00000+0  11932-2 0  9996
2 25113  45.0136 104.6172 0002052  91.1896 268.9191 14.45076423602816
ORBCOMM FM11            
1 25114U 97084C   25073.45949241  .00003767  00000+0  11135-2 0  9991
2 25114  45.0121 105.1364 0002879  95.5949 264.5231 14.44831852427775
ORBCOMM FM12            
1 25115U 97084D   25073.49256998  .00003746  00000+0  11072-2 0  9993
2 25115  45.0127 104.7384 0001872  91.6021 268.5045 14.44851893427571
ORBCOMM FM09            
1 25116U 97084E   25073.51710540  .00003446  00000+0  10242-2 0  9990
2 25116  45.0132 105.4639 0003360  69.9184 290.2028 14.44743971427784
